start=new Date('2022-01-24T00:00:00.000Z').valueOf();
sats=[{"EPHEMERIS_TYPE":"0","TLE_LINE1":"1 49409U 21104B   22023.58334491 -.00665689  00000-0 -37268-1 0  9999","ARG_OF_PERICENTER":"37.8889","LAUNCH_DATE":"2021-11-13","SEMIMAJOR_AXIS":"6898.119","INCLINATION":"53.2175","MEAN_MOTION_DOT":"-0.00665689","TIME_SYSTEM":"UTC","REF_FRAME":"TEME","ECCENTRICITY":"0.00018570","PERIAPSIS":"518.703","PERIOD":"95.029","BSTAR":"-0.03726800000000","MEAN_MOTION_DDOT":"0.0000000000000","REV_AT_EPOCH":"363","DECAY_DATE":null,"GP_ID":"194465584","OBJECT_TYPE":"PAYLOAD","RA_OF_ASC_NODE":"150.3648","MEAN_ANOMALY":"35.3975","OBJECT_ID":"2021-104B","FILE":"3280923","RCS_SIZE":"LARGE","APOAPSIS":"521.265","ELEMENT_SET_NO":"999","EPOCH":"2022-01-23T14:00:01.000224","MEAN_ELEMENT_THEORY":"SGP4","OBJECT_NAME":"STARLINK-3075","SITE":"AFETR","TLE_LINE2":"2 49409  53.2175 150.3648 0001857  37.8889  35.3975 15.15328416  3632","COUNTRY_CODE":"US","MEAN_MOTION":"15.15328416","NORAD_CAT_ID":"49409","CLASSIFICATION_TYPE":"U","CENTER_NAME":"EARTH"},{"RA_OF_ASC_NODE":"150.3603","OBJECT_TYPE":"PAYLOAD","GP_ID":"194465334","DECAY_DATE":null,"REV_AT_EPOCH":"363","MEAN_MOTION_DDOT":"0.0000000000000","MEAN_ELEMENT_THEORY":"SGP4","RCS_SIZE":"LARGE","APOAPSIS":"527.395","ELEMENT_SET_NO":"999","EPOCH":"2022-01-23T14:00:01.000224","FILE":"3280923","OBJECT_ID":"2021-104C","MEAN_ANOMALY":"108.7582","TLE_LINE2":"2 49410  53.2173 150.3603 0002174  32.1128 108.7582 15.13383040  3631","SITE":"AFETR","OBJECT_NAME":"STARLINK-3147","CENTER_NAME":"EARTH","CLASSIFICATION_TYPE":"U","NORAD_CAT_ID":"49410","COUNTRY_CODE":"US","MEAN_MOTION":"15.13383040","SEMIMAJOR_AXIS":"6904.029","LAUNCH_DATE":"2021-11-13","ARG_OF_PERICENTER":"32.1128","TLE_LINE1":"1 49410U 21104C   22023.58334491 -.00663725  00000-0 -39255-1 0  9998","EPHEMERIS_TYPE":"0","MEAN_MOTION_DOT":"-0.00663725","INCLINATION":"53.2173","ECCENTRICITY":"0.00021740","REF_FRAME":"TEME","TIME_SYSTEM":"UTC","BSTAR":"-0.03925500000000","PERIOD":"95.151","PERIAPSIS":"524.393"},{"PERIAPSIS":"432.162","PERIOD":"93.247","BSTAR":"-0.01526400000000","TIME_SYSTEM":"UTC","REF_FRAME":"TEME","ECCENTRICITY":"0.00019660","INCLINATION":"53.2175","MEAN_MOTION_DOT":"-0.00656204","TLE_LINE1":"1 49411U 21104D   22023.58334491 -.00656204  00000-0 -15264-1 0  9997","ARG_OF_PERICENTER":"28.2196","EPHEMERIS_TYPE":"0","SEMIMAJOR_AXIS":"6811.636","LAUNCH_DATE":"2021-11-13","MEAN_MOTION":"15.44278311","COUNTRY_CODE":"US","NORAD_CAT_ID":"49411","CENTER_NAME":"EARTH","CLASSIFICATION_TYPE":"U","SITE":"AFETR","OBJECT_NAME":"STARLINK-3162","TLE_LINE2":"2 49411  53.2175 143.5902 0001966  28.2196 357.2649 15.44278311  3676","MEAN_ANOMALY":"357.2649","RCS_SIZE":"LARGE","APOAPSIS":"434.841","ELEMENT_SET_NO":"999","EPOCH":"2022-01-23T14:00:01.000224","MEAN_ELEMENT_THEORY":"SGP4","OBJECT_ID":"2021-104D","FILE":"3280923","MEAN_MOTION_DDOT":"0.0000000000000","REV_AT_EPOCH":"367","OBJECT_TYPE":"PAYLOAD","RA_OF_ASC_NODE":"143.5902","DECAY_DATE":null,"GP_ID":"194466585"},{"CENTER_NAME":"EARTH","CLASSIFICATION_TYPE":"U","NORAD_CAT_ID":"49412","MEAN_MOTION":"15.15092084","COUNTRY_CODE":"US","TLE_LINE2":"2 49412  53.2173 149.2330 0001366  56.3873 319.4464 15.15092084 12394","SITE":"AFETR","OBJECT_NAME":"STARLINK-3144","MEAN_ELEMENT_THEORY":"SGP4","APOAPSIS":"521.643","RCS_SIZE":"LARGE","EPOCH":"2022-01-23T20:00:01.000224","ELEMENT_SET_NO":"999","FILE":"3280975","OBJECT_ID":"2021-104E","MEAN_ANOMALY":"319.4464","RA_OF_ASC_NODE":"149.2330","OBJECT_TYPE":"PAYLOAD","GP_ID":"194468138","DECAY_DATE":null,"REV_AT_EPOCH":"1239","MEAN_MOTION_DDOT":"0.0000000000000","BSTAR":"-0.03730200000000","PERIOD":"95.044","PERIAPSIS":"519.759","ECCENTRICITY":"0.00013660","REF_FRAME":"TEME","TIME_SYSTEM":"UTC","MEAN_MOTION_DOT":"-0.00662021","INCLINATION":"53.2173","SEMIMAJOR_AXIS":"6898.836","LAUNCH_DATE":"2021-11-13","ARG_OF_PERICENTER":"56.3873","TLE_LINE1":"1 49412U 21104E   22023.83334491 -.00662021  00000-0 -37302-1 0  9997","EPHEMERIS_TYPE":"0"},{"REF_FRAME":"TEME","ECCENTRICITY":"0.00019500","TIME_SYSTEM":"UTC","PERIOD":"93.240","BSTAR":"-0.01520400000000","PERIAPSIS":"431.835","LAUNCH_DATE":"2021-11-13","SEMIMAJOR_AXIS":"6811.298","EPHEMERIS_TYPE":"0","TLE_LINE1":"1 49413U 21104F   22023.58334491 -.00656201  00000-0 -15204-1 0  9990","ARG_OF_PERICENTER":"28.1799","MEAN_MOTION_DOT":"-0.00656201","INCLINATION":"53.2175","TLE_LINE2":"2 49413  53.2175 143.5904 0001950  28.1799   6.7922 15.44393466  3670","OBJECT_NAME":"STARLINK-3157","SITE":"AFETR","CLASSIFICATION_TYPE":"U","CENTER_NAME":"EARTH","MEAN_MOTION":"15.44393466","COUNTRY_CODE":"US","NORAD_CAT_ID":"49413","DECAY_DATE":null,"GP_ID":"194465085","OBJECT_TYPE":"PAYLOAD","RA_OF_ASC_NODE":"143.5904","MEAN_MOTION_DDOT":"0.0000000000000","REV_AT_EPOCH":"367","OBJECT_ID":"2021-104F","FILE":"3280923","APOAPSIS":"434.491","RCS_SIZE":"LARGE","ELEMENT_SET_NO":"999","EPOCH":"2022-01-23T14:00:01.000224","MEAN_ELEMENT_THEORY":"SGP4","MEAN_ANOMALY":"6.7922"},{"CENTER_NAME":"EARTH","CLASSIFICATION_TYPE":"U","NORAD_CAT_ID":"49414","COUNTRY_CODE":"US","MEAN_MOTION":"15.13147299","TLE_LINE2":"2 49414  53.2172 149.2298 0001700  41.7497  40.4935 15.13147299 12391","SITE":"AFETR","OBJECT_NAME":"STARLINK-3146","MEAN_ELEMENT_THEORY":"SGP4","APOAPSIS":"527.785","RCS_SIZE":"LARGE","ELEMENT_SET_NO":"999","EPOCH":"2022-01-23T20:00:01.000224","FILE":"3280967","OBJECT_ID":"2021-104G","MEAN_ANOMALY":"40.4935","RA_OF_ASC_NODE":"149.2298","OBJECT_TYPE":"PAYLOAD","GP_ID":"194468367","DECAY_DATE":null,"REV_AT_EPOCH":"1239","MEAN_MOTION_DDOT":"0.0000000000000","BSTAR":"-0.03935100000000","PERIOD":"95.166","PERIAPSIS":"525.437","ECCENTRICITY":"0.00017000","REF_FRAME":"TEME","TIME_SYSTEM":"UTC","MEAN_MOTION_DOT":"-0.00661070","INCLINATION":"53.2172","SEMIMAJOR_AXIS":"6904.746","LAUNCH_DATE":"2021-11-13","ARG_OF_PERICENTER":"41.7497","TLE_LINE1":"1 49414U 21104G   22023.83334491 -.00661070  00000-0 -39351-1 0  9998","EPHEMERIS_TYPE":"0"},{"DECAY_DATE":null,"GP_ID":"194466086","OBJECT_TYPE":"PAYLOAD","RA_OF_ASC_NODE":"143.5888","MEAN_MOTION_DDOT":"0.0000000000000","REV_AT_EPOCH":"367","OBJECT_ID":"2021-104H","FILE":"3280923","EPOCH":"2022-01-23T14:00:01.000224","RCS_SIZE":"LARGE","APOAPSIS":"434.159","ELEMENT_SET_NO":"999","MEAN_ELEMENT_THEORY":"SGP4","MEAN_ANOMALY":"16.3734","TLE_LINE2":"2 49415  53.2176 143.5888 0001960  28.0521  16.3734 15.44508645  3672","OBJECT_NAME":"STARLINK-3159","SITE":"AFETR","CENTER_NAME":"EARTH","CLASSIFICATION_TYPE":"U","COUNTRY_CODE":"US","MEAN_MOTION":"15.44508645","NORAD_CAT_ID":"49415","LAUNCH_DATE":"2021-11-13","SEMIMAJOR_AXIS":"6810.959","EPHEMERIS_TYPE":"0","TLE_LINE1":"1 49415U 21104H   22023.58334491 -.00656316  00000-0 -15147-1 0  9995","ARG_OF_PERICENTER":"28.0521","MEAN_MOTION_DOT":"-0.00656316","INCLINATION":"53.2176","REF_FRAME":"TEME","ECCENTRICITY":"0.00019600","TIME_SYSTEM":"UTC","PERIOD":"93.234","BSTAR":"-0.01514700000000","PERIAPSIS":"431.489"},{"PERIOD":"95.130","BSTAR":"-0.03879000000000","PERIAPSIS":"523.338","REF_FRAME":"TEME","ECCENTRICITY":"0.00022100","TIME_SYSTEM":"UTC","MEAN_MOTION_DOT":"-0.00662266","INCLINATION":"53.2173","LAUNCH_DATE":"2021-11-13","SEMIMAJOR_AXIS":"6902.998","EPHEMERIS_TYPE":"0","TLE_LINE1":"1 49416U 21104J   22023.58334491 -.00662266  00000-0 -38790-1 0  9996","ARG_OF_PERICENTER":"33.1791","CLASSIFICATION_TYPE":"U","CENTER_NAME":"EARTH","MEAN_MOTION":"15.13721921","COUNTRY_CODE":"US","NORAD_CAT_ID":"49416","TLE_LINE2":"2 49416  53.2173 150.3619 0002210  33.1791 163.5717 15.13721921  3635","OBJECT_NAME":"STARLINK-3133","SITE":"AFETR","OBJECT_ID":"2021-104J","FILE":"3280923","RCS_SIZE":"LARGE","APOAPSIS":"526.389","EPOCH":"2022-01-23T14:00:01.000224","ELEMENT_SET_NO":"999","MEAN_ELEMENT_THEORY":"SGP4","MEAN_ANOMALY":"163.5717","DECAY_DATE":null,"GP_ID":"194466329","OBJECT_TYPE":"PAYLOAD","RA_OF_ASC_NODE":"150.3619","MEAN_MOTION_DDOT":"0.0000000000000","REV_AT_EPOCH":"363"},{"TLE_LINE2":"2 49417  53.2143 142.4157 0002811  44.4003 315.7229 15.45034546 12487","OBJECT_NAME":"STARLINK-3154","SITE":"AFETR","CLASSIFICATION_TYPE":"U","CENTER_NAME":"EARTH","COUNTRY_CODE":"US","MEAN_MOTION":"15.45034546","NORAD_CAT_ID":"49417","DECAY_DATE":null,"GP_ID":"194470471","OBJECT_TYPE":"PAYLOAD","RA_OF_ASC_NODE":"142.4157","MEAN_MOTION_DDOT":"0.0000000000000","REV_AT_EPOCH":"1248","OBJECT_ID":"2021-104K","FILE":"3281078","APOAPSIS":"433.193","RCS_SIZE":"LARGE","ELEMENT_SET_NO":"999","EPOCH":"2022-01-23T19:58:50.134944","MEAN_ELEMENT_THEORY":"SGP4","MEAN_ANOMALY":"315.7229","REF_FRAME":"TEME","ECCENTRICITY":"0.00028110","TIME_SYSTEM":"UTC","PERIOD":"93.202","BSTAR":"-0.00718440000000","PERIAPSIS":"429.364","LAUNCH_DATE":"2021-11-13","SEMIMAJOR_AXIS":"6809.414","EPHEMERIS_TYPE":"0","TLE_LINE1":"1 49417U 21104K   22023.83252471 -.00330711  00000-0 -71844-2 0  9997","ARG_OF_PERICENTER":"44.4003","MEAN_MOTION_DOT":"-0.00330711","INCLINATION":"53.2143"},{"MEAN_ANOMALY":"182.6024","OBJECT_ID":"2021-104L","FILE":"3281079","APOAPSIS":"527.115","RCS_SIZE":"LARGE","EPOCH":"2022-01-23T22:00:00.999936","ELEMENT_SET_NO":"999","MEAN_ELEMENT_THEORY":"SGP4","MEAN_MOTION_DDOT":"0.0000000000000","REV_AT_EPOCH":"1240","DECAY_DATE":null,"GP_ID":"194470982","OBJECT_TYPE":"PAYLOAD","RA_OF_ASC_NODE":"148.8533","COUNTRY_CODE":"US","MEAN_MOTION":"15.13361668","NORAD_CAT_ID":"49418","CENTER_NAME":"EARTH","CLASSIFICATION_TYPE":"U","OBJECT_NAME":"STARLINK-3111","SITE":"AFETR","TLE_LINE2":"2 49418  53.2172 148.8533 0001674  50.1340 182.6024 15.13361668 12401","INCLINATION":"53.2172","MEAN_MOTION_DOT":"-0.00665914","EPHEMERIS_TYPE":"0","TLE_LINE1":"1 49418U 21104L   22023.91667824 -.00665914  00000-0 -39420-1 0  9998","ARG_OF_PERICENTER":"50.1340","LAUNCH_DATE":"2021-11-13","SEMIMAJOR_AXIS":"6904.094","PERIAPSIS":"524.803","PERIOD":"95.152","BSTAR":"-0.03942000000000","TIME_SYSTEM":"UTC","REF_FRAME":"TEME","ECCENTRICITY":"0.00016740"}];
